[{"OBJECT_NAME":"SL-16 R/B","OBJECT_ID":"1993-059B","EPOCH":"2026-03-26T03:13:02.888544","MEAN_MOTION":14.1723543,"ECCENTRICITY":0.00175571,"INCLINATION":70.9925,"RA_OF_ASC_NODE":336.4513,"ARG_OF_PERICENTER":192.7342,"MEAN_ANOMALY":167.3341,"EPHEMERIS_TYPE":0,"CLASSIFICATION_TYPE":"U","NORAD_CAT_ID":22803,"ELEMENT_SET_NO":999,"REV_AT_EPOCH":68186,"BSTAR":-2.3196208e-5,"MEAN_MOTION_DOT":-9.5e-7,"MEAN_MOTION_DDOT":0},{"OBJECT_NAME":"ARIANE 40 R/B","OBJECT_ID":"1993-061H","EPOCH":"2026-03-26T02:36:31.705056","MEAN_MOTION":14.32869473,"ECCENTRICITY":0.00098652,"INCLINATION":98.4886,"RA_OF_ASC_NODE":153.6701,"ARG_OF_PERICENTER":231.0065,"MEAN_ANOMALY":129.0241,"EPHEMERIS_TYPE":0,"CLASSIFICATION_TYPE":"U","NORAD_CAT_ID":22830,"ELEMENT_SET_NO":999,"REV_AT_EPOCH":69645,"BSTAR":9.4598959e-5,"MEAN_MOTION_DOT":2.15e-6,"MEAN_MOTION_DDOT":0},{"OBJECT_NAME":"COSMOS 2278","OBJECT_ID":"1994-023A","EPOCH":"2026-03-26T06:55:24.760992","MEAN_MOTION":14.14376432,"ECCENTRICITY":0.00090632,"INCLINATION":71.0524,"RA_OF_ASC_NODE":140.373,"ARG_OF_PERICENTER":346.8986,"MEAN_ANOMALY":13.19,"EPHEMERIS_TYPE":0,"CLASSIFICATION_TYPE":"U","NORAD_CAT_ID":23087,"ELEMENT_SET_NO":999,"REV_AT_EPOCH":64715,"BSTAR":-0.00010737141,"MEAN_MOTION_DOT":-2.53e-6,"MEAN_MOTION_DDOT":0},{"OBJECT_NAME":"SL-16 R/B","OBJECT_ID":"1994-023B","EPOCH":"2026-03-26T06:09:49.224672","MEAN_MOTION":14.15013355,"ECCENTRICITY":0.00054497,"INCLINATION":71.001,"RA_OF_ASC_NODE":36.0921,"ARG_OF_PERICENTER":269.9196,"MEAN_ANOMALY":90.1302,"EPHEMERIS_TYPE":0,"CLASSIFICATION_TYPE":"U","NORAD_CAT_ID":23088,"ELEMENT_SET_NO":999,"REV_AT_EPOCH":64843,"BSTAR":0.00019258848,"MEAN_MOTION_DOT":3.25e-6,"MEAN_MOTION_DDOT":0},{"OBJECT_NAME":"SL-16 R/B","OBJECT_ID":"1994-074B","EPOCH":"2026-03-26T02:15:34.824384","MEAN_MOTION":14.79425769,"ECCENTRICITY":0.00070907,"INCLINATION":97.7085,"RA_OF_ASC_NODE":115.246,"ARG_OF_PERICENTER":156.3595,"MEAN_ANOMALY":267.8429,"EPHEMERIS_TYPE":0,"CLASSIFICATION_TYPE":"U","NORAD_CAT_ID":23343,"ELEMENT_SET_NO":999,"REV_AT_EPOCH":68967,"BSTAR":6.6750594e-5,"MEAN_MOTION_DOT":4.49e-6,"MEAN_MOTION_DDOT":0},{"OBJECT_NAME":"SL-16 R/B","OBJECT_ID":"1994-077B","EPOCH":"2026-03-26T02:10:30.568512","MEAN_MOTION":14.15569,"ECCENTRICITY":0.00021127,"INCLINATION":70.9839,"RA_OF_ASC_NODE":317.9867,"ARG_OF_PERICENTER":198.27,"MEAN_ANOMALY":161.8347,"EPHEMERIS_TYPE":0,"CLASSIFICATION_TYPE":"U","NORAD_CAT_ID":23405,"ELEMENT_SET_NO":999,"REV_AT_EPOCH":61855,"BSTAR":4.7698336e-5,"MEAN_MOTION_DOT":4.5e-7,"MEAN_MOTION_DDOT":0},{"OBJECT_NAME":"ARIANE 40+ R/B","OBJECT_ID":"1995-021B","EPOCH":"2026-03-26T05:01:41.965536","MEAN_MOTION":14.39784026,"ECCENTRICITY":0.00079722,"INCLINATION":98.4468,"RA_OF_ASC_NODE":156.466,"ARG_OF_PERICENTER":93.8562,"MEAN_ANOMALY":284.8129,"EPHEMERIS_TYPE":0,"CLASSIFICATION_TYPE":"U","NORAD_CAT_ID":23561,"ELEMENT_SET_NO":999,"REV_AT_EPOCH":62162,"BSTAR":0.00010774154,"MEAN_MOTION_DOT":2.94e-6,"MEAN_MOTION_DDOT":0},{"OBJECT_NAME":"SL-16 R/B","OBJECT_ID":"1995-058B","EPOCH":"2026-03-26T07:26:59.421408","MEAN_MOTION":14.15500069,"ECCENTRICITY":0.00101165,"INCLINATION":71.021,"RA_OF_ASC_NODE":145.363,"ARG_OF_PERICENTER":94.9801,"MEAN_ANOMALY":265.2477,"EPHEMERIS_TYPE":0,"CLASSIFICATION_TYPE":"U","NORAD_CAT_ID":23705,"ELEMENT_SET_NO":999,"REV_AT_EPOCH":57020,"BSTAR":-9.0235736e-5,"MEAN_MOTION_DOT":-2.24e-6,"MEAN_MOTION_DDOT":0},{"OBJECT_NAME":"SL-16 R/B","OBJECT_ID":"1996-051B","EPOCH":"2026-03-26T07:31:01.670592","MEAN_MOTION":14.12420276,"ECCENTRICITY":0.0013706,"INCLINATION":70.759,"RA_OF_ASC_NODE":140.0553,"ARG_OF_PERICENTER":121.4246,"MEAN_ANOMALY":238.8216,"EPHEMERIS_TYPE":0,"CLASSIFICATION_TYPE":"U","NORAD_CAT_ID":24298,"ELEMENT_SET_NO":999,"REV_AT_EPOCH":52399,"BSTAR":7.1852879e-5,"MEAN_MOTION_DOT":8.4e-7,"MEAN_MOTION_DDOT":0},{"OBJECT_NAME":"ORBVIEW 2 (SEASTAR)","OBJECT_ID":"1997-037A","EPOCH":"2026-03-26T01:50:19.429728","MEAN_MOTION":14.35505988,"ECCENTRICITY":0.00025436,"INCLINATION":98.8597,"RA_OF_ASC_NODE":249.8251,"ARG_OF_PERICENTER":37.2481,"MEAN_ANOMALY":322.8879,"EPHEMERIS_TYPE":0,"CLASSIFICATION_TYPE":"U","NORAD_CAT_ID":24883,"ELEMENT_SET_NO":999,"REV_AT_EPOCH":51082,"BSTAR":0.00011597212,"MEAN_MOTION_DOT":2.87e-6,"MEAN_MOTION_DDOT":0},{"OBJECT_NAME":"SL-16 R/B","OBJECT_ID":"1998-043G","EPOCH":"2026-03-26T06:57:46.522656","MEAN_MOTION":14.26053545,"ECCENTRICITY":0.00093326,"INCLINATION":98.8282,"RA_OF_ASC_NODE":38.7741,"ARG_OF_PERICENTER":332.3093,"MEAN_ANOMALY":27.7588,"EPHEMERIS_TYPE":0,"CLASSIFICATION_TYPE":"U","NORAD_CAT_ID":25400,"ELEMENT_SET_NO":999,"REV_AT_EPOCH":44135,"BSTAR":5.3486611e-5,"MEAN_MOTION_DOT":8.2e-7,"MEAN_MOTION_DDOT":0},{"OBJECT_NAME":"SL-16 R/B","OBJECT_ID":"1998-045B","EPOCH":"2026-03-26T07:30:58.318272","MEAN_MOTION":14.16194839,"ECCENTRICITY":0.00078499,"INCLINATION":71.0108,"RA_OF_ASC_NODE":146.6179,"ARG_OF_PERICENTER":342.0087,"MEAN_ANOMALY":18.0758,"EPHEMERIS_TYPE":0,"CLASSIFICATION_TYPE":"U","NORAD_CAT_ID":25407,"ELEMENT_SET_NO":999,"REV_AT_EPOCH":42945,"BSTAR":-9.634998e-5,"MEAN_MOTION_DOT":-2.39e-6,"MEAN_MOTION_DDOT":0},{"OBJECT_NAME":"ISS (ZARYA)","OBJECT_ID":"1998-067A","EPOCH":"2026-03-26T03:56:25.626336","MEAN_MOTION":15.48550942,"ECCENTRICITY":0.00062355,"INCLINATION":51.6341,"RA_OF_ASC_NODE":350.9181,"ARG_OF_PERICENTER":233.8862,"MEAN_ANOMALY":126.1549,"EPHEMERIS_TYPE":0,"CLASSIFICATION_TYPE":"U","NORAD_CAT_ID":25544,"ELEMENT_SET_NO":999,"REV_AT_EPOCH":55888,"BSTAR":0.00025199987,"MEAN_MOTION_DOT":0.00013248,"MEAN_MOTION_DDOT":0},{"OBJECT_NAME":"CZ-4B R/B","OBJECT_ID":"1999-025C","EPOCH":"2026-03-26T02:18:50.590368","MEAN_MOTION":14.18268478,"ECCENTRICITY":0.0036068,"INCLINATION":98.6594,"RA_OF_ASC_NODE":128.987,"ARG_OF_PERICENTER":298.4929,"MEAN_ANOMALY":88.0027,"EPHEMERIS_TYPE":0,"CLASSIFICATION_TYPE":"U","NORAD_CAT_ID":25732,"ELEMENT_SET_NO":999,"REV_AT_EPOCH":39049,"BSTAR":4.5222869e-5,"MEAN_MOTION_DOT":5.0e-7,"MEAN_MOTION_DDOT":0},{"OBJECT_NAME":"OKEAN-O","OBJECT_ID":"1999-039A","EPOCH":"2026-03-26T03:28:14.511360","MEAN_MOTION":14.80360863,"ECCENTRICITY":8.859e-5,"INCLINATION":97.9408,"RA_OF_ASC_NODE":144.8661,"ARG_OF_PERICENTER":86.8361,"MEAN_ANOMALY":273.2952,"EPHEMERIS_TYPE":0,"CLASSIFICATION_TYPE":"U","NORAD_CAT_ID":25860,"ELEMENT_SET_NO":999,"REV_AT_EPOCH":43682,"BSTAR":9.4748253e-5,"MEAN_MOTION_DOT":6.71e-6,"MEAN_MOTION_DDOT":0},{"OBJECT_NAME":"SL-16 R/B","OBJECT_ID":"1999-039B","EPOCH":"2026-03-26T02:36:58.574592","MEAN_MOTION":14.81752971,"ECCENTRICITY":0.00143422,"INCLINATION":97.9931,"RA_OF_ASC_NODE":144.1784,"ARG_OF_PERICENTER":199.1366,"MEAN_ANOMALY":160.931,"EPHEMERIS_TYPE":0,"CLASSIFICATION_TYPE":"U","NORAD_CAT_ID":25861,"ELEMENT_SET_NO":999,"REV_AT_EPOCH":43929,"BSTAR":7.4747331e-5,"MEAN_MOTION_DOT":5.36e-6,"MEAN_MOTION_DDOT":0},{"OBJECT_NAME":"DELTA 2 R/B","OBJECT_ID":"1999-041E","EPOCH":"2026-03-26T01:51:56.376576","MEAN_MOTION":14.11873411,"ECCENTRICITY":0.05026363,"INCLINATION":51.7606,"RA_OF_ASC_NODE":235.8151,"ARG_OF_PERICENTER":36.766,"MEAN_ANOMALY":326.6666,"EPHEMERIS_TYPE":0,"CLASSIFICATION_TYPE":"U","NORAD_CAT_ID":25876,"ELEMENT_SET_NO":999,"REV_AT_EPOCH":36534,"BSTAR":0.00014763101,"MEAN_MOTION_DOT":6.71e-6,"MEAN_MOTION_DDOT":0}]
